{
    "links": {
        "self": "http://www.neowsapp.com/rest/v1/neo/3603629?api_key=iIulBulltgU6a56xZRHN4H3l9WmuAYTsLGpBGhQ2"
    },
    "id": "3603629",
    "neo_reference_id": "3603629",
    "name": "(2012 JP4)",
    "designation": "2012 JP4",
    "nasa_jpl_url": "http://ssd.jpl.nasa.gov/sbdb.cgi?sstr=3603629",
    "absolute_magnitude_h": 25.0,
    "estimated_diameter": {
        "kilometers": {
            "estimated_diameter_min": 0.02658,
            "estimated_diameter_max": 0.0594346868
        },
        "meters": {
            "estimated_diameter_min": 26.58,
            "estimated_diameter_max": 59.4346868419
        },
        "miles": {
            "estimated_diameter_min": 0.0165160412,
            "estimated_diameter_max": 0.0369309908
        },
        "feet": {
            "estimated_diameter_min": 87.2047272,
            "estimated_diameter_max": 194.9956979785
        }
    },
    "is_potentially_hazardous_asteroid": false,
    "close_approach_data": [
        {
            "close_approach_date": "2012-05-03",
            "close_approach_date_full": "2012-May-03 05:42",
            "epoch_date_close_approach": 1336023720000,
            "relative_velocity": {
                "kilometers_per_second": "16.3923694296",
                "kilometers_per_hour": "59012.5299464617",
                "miles_per_hour": "36668.0911770112"
            },
            "miss_distance": {
                "astronomical": "0.0356615022",
                "lunar": "13.8723243558",
                "kilometers": "5334884.770120314",
                "miles": "3314943.6801717732"
            },
            "orbiting_body": "Earth"
        }
    ],
    "orbital_data": {
        "orbit_id": "5",
        "orbit_determination_date": "2017-04-06 08:49:51",
        "first_observation_date": "2012-05-12",
        "last_observation_date": "2012-05-19",
        "data_arc_in_days": 7,
        "observations_used": 25,
        "orbit_uncertainty": "9",
        "minimum_orbit_intersection": ".0249289",
        "jupiter_tisserand_invariant": "3.880",
        "epoch_osculation": "2456061.5",
        "eccentricity": ".5766027569713463",
        "semi_major_axis": "1.755843353051213",
        "inclination": "15.11148784678714",
        "ascending_node_longitude": "229.2239853531247",
        "orbital_period": "849.8202562225832",
        "perihelion_distance": ".7434192348720704",
        "perihelion_argument": "280.1912267307532",
        "aphelion_distance": "2.768267471230355",
        "perihelion_time": "2456002.035929649134",
        "mean_anomaly": "25.19010951970632",
        "mean_motion": ".4236189916208699",
        "equinox": "J2000",
        "orbit_class": {
            "orbit_class_type": "APO",
            "orbit_class_description": "Near-Earth asteroid orbits which cross the Earth’s orbit similar to that of 1862 Apollo",
            "orbit_class_range": "a (semi-major axis) > 1.0 AU; q (perihelion) < 1.017 AU"
        }
    },
    "is_sentry_object": false
}